KUIPER-00165            
1 65778U 25217S   25332.66668981  .00014418  00000+0  45642-3 0  9996
2 65778  51.8706 132.4552 0003971 292.0382 280.9223 15.32984796  4071
KUIPER-00166            
1 65779U 25217T   25332.61308312  .00248075  00000+0  62532-2 0  9995
2 65779  51.8697 132.5633 0003785 233.1637 126.9003 15.38384698  9873
KUIPER-00167            
1 65780U 25217U   25332.66668981 -.00996771  00000+0 -62833-1 0  9991
2 65780  51.8804 135.1242 0011012 294.8696   9.2495 15.11649843  3982
KUIPER-00168            
1 65781U 25217V   25332.45410595  .00049622  00000+0  12749-2 0  9999
2 65781  51.8702 133.0070 0002930 238.0645 122.0058 15.38799708  9855
KUIPER-00169            
1 65782U 25217W   25332.48316293  .00038714  00000+0  10137-2 0  9992
2 65782  51.8700 133.1950 0002456 274.0370  86.0336 15.38329852  9857
KUIPER-00170            
1 65783U 25217X   25332.66668981 -.00932291  00000+0 -34662-1 0  9990
2 65783  51.8679 132.9948 0006596 309.7814   8.7504 15.29888500  5927
KUIPER-00171            
1 65784U 25217Y   25332.64979527  .00241869  00000+0  21702-2 0  9994
2 65784  51.8564 127.5940 0008513 309.6879  50.3368 15.66946326  9943
KUIPER-00172            
1 65785U 25217Z   25331.75208954  .00063874  00000+0  16483-2 0  9993
2 65785  51.8708 136.5509 0002887 269.7433  90.3223 15.38552988  9743
KUIPER-00173            
1 65786U 25217AA  25332.60650222  .00031895  00000+0  83596-3 0  9996
2 65786  51.8686 132.5192 0002967 265.6224  94.4425 15.38394118  9877
KUIPER-00174            
1 65787U 25217AB  25332.46066741  .00046552  00000+0  12136-2 0  9995
2 65787  51.8696 133.0476 0004033 248.4466 111.6091 15.38377594  9851
KUIPER-00176            
1 65788U 25217AC  25332.66668981 -.00474895  00000+0 -25504-1 0  9991
2 65788  51.8797 133.8441 0003535 277.8405 308.7784 15.16712497  5674
KUIPER-00101            
1 65947U 25228A   25332.66668981 -.00794413  00000+0 -47527-1 0  9990
2 65947  51.8920  90.2477 0003816 329.6941 269.6381 15.13401261  5755
KUIPER-00113            
1 65948U 25228B   25332.66668981 -.00880236  00000+0 -40710-1 0  9997
2 65948  51.8812  88.7451 0006336 305.4991 255.8065 15.22115954  3853
KUIPER-00117            
1 65949U 25228C   25332.66668981 -.00921710  00000+0 -47255-1 0  9992
2 65949  51.8855  89.4022 0008602 315.6038 277.2721 15.18700273  4842
KUIPER-00121            
1 65950U 25228D   25330.51621356 -.00118312  00000+0 -34546-2 0  9997
2 65950  51.8791  98.8214 0007520 319.3514  40.6910 15.35148871  7921
KUIPER-00122            
1 65951U 25228E   25332.66668981 -.01027397  00000+0 -76123-1 0  9990
2 65951  51.8987  91.4688 0006399 343.4107  25.5548 15.05450094  4636
KUIPER-00123            
1 65952U 25228F   25332.66668981  .00011591  00000+0  85164-3 0  9994
2 65952  51.8917  91.4809 0006936 325.9882 300.2864 15.03816798  5165
KUIPER-00124            
1 65953U 25228G   25332.66668981  .00030632  00000+0  99671-3 0  9990
2 65953  51.8795  88.5925 0004620 337.1772 332.1635 15.31604094  5724
KUIPER-00125            
1 65954U 25228H   25332.52586196  .00036950  00000+0  10522-2 0  9999
2 65954  51.8783  89.0276 0005381 307.9878  52.0622 15.35737541  8235
KUIPER-00126            
1 65955U 25228J   25332.66668981 -.00867447  00000+0 -52915-1 0  9994
2 65955  51.8906  90.3261 0006456 327.0656 163.4501 15.12483982  5628
KUIPER-00127            
1 65956U 25228K   25332.66668981 -.00735741  00000+0 -36648-1 0  9991
2 65956  51.8888  89.3419 0003993 329.1117 348.2416 15.19575885  5820
KUIPER-00128            
1 65957U 25228L   25332.66668981  .00011099  00000+0  36766-3 0  9996
2 65957  51.8801  88.4090 0005982 320.8335  68.3428 15.31772886  5738
KUIPER-00129            
1 65958U 25228M   25332.58788074  .00035737  00000+0  10170-2 0  9999
2 65958  51.8802  88.7070 0006123 303.1053  56.9345 15.35771293  8245
KUIPER-00130            
1 65959U 25228N   25332.59756603  .00019626  00000+0  57528-3 0  9992
2 65959  51.8782  88.7607 0005630 322.8874  37.1722 15.35185401  8240
KUIPER-00134            
1 65960U 25228P   25332.66405581  .00035945  00000+0  10404-2 0  9991
2 65960  51.8781  88.4562 0005937 319.0008  41.0531 15.35239933  8258
KUIPER-00135            
1 65961U 25228Q   25332.59951631  .00038434  00000+0  11148-2 0  9998
2 65961  51.8798  88.7843 0004197 315.6245  44.4404 15.35148288  8241
KUIPER-00136            
1 65962U 25228R   25332.66668981  .00031820  00000+0  90768-3 0  9998
2 65962  51.8792  88.3099 0005823 306.8051 137.7356 15.35756285  3125
KUIPER-00137            
1 65963U 25228S   25332.59932995  .00041778  00000+0  12110-2 0  9997
2 65963  51.8799  88.7832 0005767 325.8345  34.2269 15.35122758  8240
KUIPER-00138            
1 65964U 25228T   25332.60322881  .00043444  00000+0  12572-2 0  9991
2 65964  51.8783  88.7991 0006958 327.6278  32.4280 15.35150456  8247
KUIPER-00140            
1 65965U 25228U   25332.60703355  .00041770  00000+0  12289-2 0  9996
2 65965  51.8795  88.8291 0006904 324.7976  35.2553 15.34648146  8240
KUIPER-00141            
1 65966U 25228V   25332.52490679  .00040746  00000+0  11587-2 0  9992
2 65966  51.8788  89.0239 0005915 311.0734  48.9740 15.35734450  8233
KUIPER-00146            
1 65967U 25228W   25332.59617882  .00035552  00000+0  10298-2 0  9994
2 65967  51.8785  88.7622 0006614 315.1691  44.8760 15.35216807  8246
KUIPER-00149            
1 65968U 25228X   25332.58614819  .00044563  00000+0  12618-2 0  9991
2 65968  51.8810  88.6909 0005636 309.3579  50.6907 15.35828137  8249
KUIPER-00154            
1 65969U 25228Y   25332.52311841  .00033947  00000+0  97751-3 0  9991
2 65969  51.8800  89.0164 0005698 306.6683  53.3779 15.35429547  8239
KUIPER-00157            
1 65970U 25228Z   25332.60007919  .00045519  00000+0  13166-2 0  9995
2 65970  51.8796  88.7870 0006499 326.4954  33.5620 15.35146939  8243
